KUIPER-00089            
1 64834U 25151U   25282.96120557 -.00031654  00000+0 -15796-2 0  9993
2 64834  51.8916 235.7301 0007206 113.9143 246.2591 15.16818900 13142
KUIPER-00090            
1 64835U 25151V   25282.25168569 -.00046546  00000+0 -14611-2 0  9992
2 64835  51.8791 237.6952 0009760 111.5971 248.6054 15.32397013 13052
KUIPER-00091            
1 64836U 25151W   25282.18198823 -.00202849  00000+0 -92278-2 0  9996
2 64836  51.8818 238.6550 0009993  99.1218 261.0893 15.21073442 13034
KUIPER-00092            
1 64837U 25151X   25282.91667824  .00000826  00000+0  86331-4 0  9994
2 64837  51.8898 238.3987 0008926  93.0384 260.4733 15.00329349  5715
KUIPER-00093            
1 64838U 25151Y   25282.91667824 -.00030350  00000+0 -29465-2 0  9995
2 64838  51.9182 240.2817 0015235 106.8288 265.5953 14.91981334  5485
KUIPER-00094            
1 64839U 25151Z   25282.32367632 -.00138973  00000+0 -73228-2 0  9991
2 64839  51.8845 238.8088 0008439 103.5354 256.6564 15.15688792 13049
KUIPER-00081            
1 65132U 25171A   25282.90756970  .00034791  00000+0  93538-3 0  9999
2 65132  51.8689 117.9632 0004722 328.9369  31.1338 15.37559989 10382
KUIPER-00088            
1 65133U 25171B   25282.91667824 -.00733790  00000+0 -31178-1 0  9997
2 65133  51.8817 118.5204 0007056 325.8804 156.5333 15.24897322  5610
